[{"OBJECT_NAME":"STARLINK-32096","OBJECT_ID":"2024-086S","EPOCH":"2025-12-20T10:46:03.764352","MEAN_MOTION":15.27576861,"ECCENTRICITY":0.00014052,"INCLINATION":43.0012,"RA_OF_ASC_NODE":147.3722,"ARG_OF_PERICENTER":276.1757,"MEAN_ANOMALY":83.8935,"EPHEMERIS_TYPE":0,"CLASSIFICATION_TYPE":"U","NORAD_CAT_ID":59698,"ELEMENT_SET_NO":999,"REV_AT_EPOCH":9199,"BSTAR":7.643633e-6,"MEAN_MOTION_DOT":-5.2e-7,"MEAN_MOTION_DDOT":0},{"OBJECT_NAME":"STARLINK-32102","OBJECT_ID":"2024-086T","EPOCH":"2025-12-20T10:34:58.143072","MEAN_MOTION":15.27577652,"ECCENTRICITY":0.00030633,"INCLINATION":42.9988,"RA_OF_ASC_NODE":147.3139,"ARG_OF_PERICENTER":288.6468,"MEAN_ANOMALY":71.4051,"EPHEMERIS_TYPE":0,"CLASSIFICATION_TYPE":"U","NORAD_CAT_ID":59699,"ELEMENT_SET_NO":999,"REV_AT_EPOCH":9199,"BSTAR":0.00093105803,"MEAN_MOTION_DOT":0.00025447,"MEAN_MOTION_DDOT":0},{"OBJECT_NAME":"STARLINK-32092","OBJECT_ID":"2024-086U","EPOCH":"2025-12-19T19:19:18.685632","MEAN_MOTION":15.27577451,"ECCENTRICITY":8.045e-5,"INCLINATION":43.0002,"RA_OF_ASC_NODE":151.1427,"ARG_OF_PERICENTER":257.8347,"MEAN_ANOMALY":102.2415,"EPHEMERIS_TYPE":0,"CLASSIFICATION_TYPE":"U","NORAD_CAT_ID":59700,"ELEMENT_SET_NO":999,"REV_AT_EPOCH":9189,"BSTAR":-3.0023317e-5,"MEAN_MOTION_DOT":-1.088e-5,"MEAN_MOTION_DDOT":0},{"OBJECT_NAME":"STARLINK-32093","OBJECT_ID":"2024-086V","EPOCH":"2025-12-20T10:57:09.685440","MEAN_MOTION":15.27572995,"ECCENTRICITY":0.0001321,"INCLINATION":43.0021,"RA_OF_ASC_NODE":147.4292,"ARG_OF_PERICENTER":258.2238,"MEAN_ANOMALY":101.8466,"EPHEMERIS_TYPE":0,"CLASSIFICATION_TYPE":"U","NORAD_CAT_ID":59701,"ELEMENT_SET_NO":999,"REV_AT_EPOCH":9199,"BSTAR":5.8638786e-5,"MEAN_MOTION_DOT":1.351e-5,"MEAN_MOTION_DDOT":0},{"OBJECT_NAME":"STARLINK-32087","OBJECT_ID":"2024-086W","EPOCH":"2025-12-20T12:14:40.116192","MEAN_MOTION":15.27565622,"ECCENTRICITY":0.00010629,"INCLINATION":43.0012,"RA_OF_ASC_NODE":146.9729,"ARG_OF_PERICENTER":269.6025,"MEAN_ANOMALY":90.4705,"EPHEMERIS_TYPE":0,"CLASSIFICATION_TYPE":"U","NORAD_CAT_ID":59702,"ELEMENT_SET_NO":999,"REV_AT_EPOCH":9200,"BSTAR":9.6492851e-5,"MEAN_MOTION_DOT":2.393e-5,"MEAN_MOTION_DDOT":0},{"OBJECT_NAME":"STARLINK-32086","OBJECT_ID":"2024-086X","EPOCH":"2025-12-19T16:58:52.762368","MEAN_MOTION":15.27578803,"ECCENTRICITY":0.00016839,"INCLINATION":43.0025,"RA_OF_ASC_NODE":151.2725,"ARG_OF_PERICENTER":262.4416,"MEAN_ANOMALY":97.6245,"EPHEMERIS_TYPE":0,"CLASSIFICATION_TYPE":"U","NORAD_CAT_ID":59703,"ELEMENT_SET_NO":999,"REV_AT_EPOCH":9188,"BSTAR":7.4972907e-5,"MEAN_MOTION_DOT":1.801e-5,"MEAN_MOTION_DDOT":0},{"OBJECT_NAME":"STARLINK-32098","OBJECT_ID":"2024-086Y","EPOCH":"2025-12-20T11:11:58.071840","MEAN_MOTION":15.27574311,"ECCENTRICITY":0.00013006,"INCLINATION":43.0005,"RA_OF_ASC_NODE":147.5077,"ARG_OF_PERICENTER":271.7435,"MEAN_ANOMALY":88.3268,"EPHEMERIS_TYPE":0,"CLASSIFICATION_TYPE":"U","NORAD_CAT_ID":59704,"ELEMENT_SET_NO":999,"REV_AT_EPOCH":9199,"BSTAR":-2.3047191e-5,"MEAN_MOTION_DOT":-8.96e-6,"MEAN_MOTION_DDOT":0},{"OBJECT_NAME":"STARLINK-11107 [DTC]","OBJECT_ID":"2024-088A","EPOCH":"2025-12-20T06:36:49.047552","MEAN_MOTION":15.69705989,"ECCENTRICITY":0.0001026,"INCLINATION":53.1596,"RA_OF_ASC_NODE":357.4479,"ARG_OF_PERICENTER":85.2174,"MEAN_ANOMALY":274.8961,"EPHEMERIS_TYPE":0,"CLASSIFICATION_TYPE":"U","NORAD_CAT_ID":59708,"ELEMENT_SET_NO":999,"REV_AT_EPOCH":9378,"BSTAR":3.09068e-6,"MEAN_MOTION_DOT":-2.14e-6,"MEAN_MOTION_DDOT":0},{"OBJECT_NAME":"STARLINK-11088 [DTC]","OBJECT_ID":"2024-088B","EPOCH":"2025-12-20T06:22:49.855584","MEAN_MOTION":15.69718162,"ECCENTRICITY":0.00014923,"INCLINATION":53.1584,"RA_OF_ASC_NODE":358.1128,"ARG_OF_PERICENTER":78.4938,"MEAN_ANOMALY":281.6248,"EPHEMERIS_TYPE":0,"CLASSIFICATION_TYPE":"U","NORAD_CAT_ID":59709,"ELEMENT_SET_NO":999,"REV_AT_EPOCH":9379,"BSTAR":4.4790593e-5,"MEAN_MOTION_DOT":4.842e-5,"MEAN_MOTION_DDOT":0},{"OBJECT_NAME":"STARLINK-11092 [DTC]","OBJECT_ID":"2024-088C","EPOCH":"2025-12-20T09:19:08.498784","MEAN_MOTION":15.69708593,"ECCENTRICITY":0.00018516,"INCLINATION":53.1583,"RA_OF_ASC_NODE":357.4513,"ARG_OF_PERICENTER":80.7492,"MEAN_ANOMALY":279.3736,"EPHEMERIS_TYPE":0,"CLASSIFICATION_TYPE":"U","NORAD_CAT_ID":59710,"ELEMENT_SET_NO":999,"REV_AT_EPOCH":9381,"BSTAR":-1.22668e-6,"MEAN_MOTION_DOT":-7.38e-6,"MEAN_MOTION_DDOT":0},{"OBJECT_NAME":"STARLINK-11082 [DTC]","OBJECT_ID":"2024-088D","EPOCH":"2025-12-20T10:43:45.371424","MEAN_MOTION":15.69717093,"ECCENTRICITY":0.00017855,"INCLINATION":53.159,"RA_OF_ASC_NODE":357.1054,"ARG_OF_PERICENTER":102.8624,"MEAN_ANOMALY":257.2593,"EPHEMERIS_TYPE":0,"CLASSIFICATION_TYPE":"U","NORAD_CAT_ID":59711,"ELEMENT_SET_NO":999,"REV_AT_EPOCH":9382,"BSTAR":-1.9235314e-5,"MEAN_MOTION_DOT":-2.92e-5,"MEAN_MOTION_DDOT":0},{"OBJECT_NAME":"STARLINK-11108 [DTC]","OBJECT_ID":"2024-088E","EPOCH":"2025-12-20T07:33:19.145952","MEAN_MOTION":15.6972264,"ECCENTRICITY":0.00010434,"INCLINATION":53.1596,"RA_OF_ASC_NODE":357.6992,"ARG_OF_PERICENTER":100.7631,"MEAN_ANOMALY":259.3504,"EPHEMERIS_TYPE":0,"CLASSIFICATION_TYPE":"U","NORAD_CAT_ID":59712,"ELEMENT_SET_NO":999,"REV_AT_EPOCH":9380,"BSTAR":-1.4472532e-5,"MEAN_MOTION_DOT":-2.342e-5,"MEAN_MOTION_DDOT":0},{"OBJECT_NAME":"STARLINK-11100 [DTC]","OBJECT_ID":"2024-088F","EPOCH":"2025-12-20T07:26:15.548352","MEAN_MOTION":15.69713078,"ECCENTRICITY":0.00012422,"INCLINATION":53.1599,"RA_OF_ASC_NODE":357.6651,"ARG_OF_PERICENTER":83.5924,"MEAN_ANOMALY":276.5235,"EPHEMERIS_TYPE":0,"CLASSIFICATION_TYPE":"U","NORAD_CAT_ID":59713,"ELEMENT_SET_NO":999,"REV_AT_EPOCH":9380,"BSTAR":-7.037656e-6,"MEAN_MOTION_DOT":-1.441e-5,"MEAN_MOTION_DDOT":0},{"OBJECT_NAME":"STARLINK-11094 [DTC]","OBJECT_ID":"2024-088G","EPOCH":"2025-12-20T10:22:33.896928","MEAN_MOTION":15.69711184,"ECCENTRICITY":0.00012317,"INCLINATION":53.1579,"RA_OF_ASC_NODE":357.0117,"ARG_OF_PERICENTER":85.2499,"MEAN_ANOMALY":274.866,"EPHEMERIS_TYPE":0,"CLASSIFICATION_TYPE":"U","NORAD_CAT_ID":59714,"ELEMENT_SET_NO":999,"REV_AT_EPOCH":9382,"BSTAR":1.656234e-5,"MEAN_MOTION_DOT":1.418e-5,"MEAN_MOTION_DDOT":0},{"OBJECT_NAME":"STARLINK-11101 [DTC]","OBJECT_ID":"2024-088H","EPOCH":"2025-12-20T07:05:04.066944","MEAN_MOTION":15.69717797,"ECCENTRICITY":0.00011885,"INCLINATION":53.1589,"RA_OF_ASC_NODE":357.5655,"ARG_OF_PERICENTER":81.7408,"MEAN_ANOMALY":278.3745,"EPHEMERIS_TYPE":0,"CLASSIFICATION_TYPE":"U","NORAD_CAT_ID":59715,"ELEMENT_SET_NO":999,"REV_AT_EPOCH":9380,"BSTAR":-3.170532e-6,"MEAN_MOTION_DOT":-9.73e-6,"MEAN_MOTION_DDOT":0},{"OBJECT_NAME":"STARLINK-11099 [DTC]","OBJECT_ID":"2024-088J","EPOCH":"2025-12-20T07:12:07.776000","MEAN_MOTION":15.69718902,"ECCENTRICITY":0.00011192,"INCLINATION":53.1585,"RA_OF_ASC_NODE":357.5983,"ARG_OF_PERICENTER":81.9253,"MEAN_ANOMALY":278.1892,"EPHEMERIS_TYPE":0,"CLASSIFICATION_TYPE":"U","NORAD_CAT_ID":59716,"ELEMENT_SET_NO":999,"REV_AT_EPOCH":9380,"BSTAR":-9.594846e-6,"MEAN_MOTION_DOT":-1.751e-5,"MEAN_MOTION_DDOT":0}]
