STARLINK-32096          
1 59698U 24086S   25354.44865468 -.00000052  00000+0  76436-5 0  9999
2 59698  43.0012 147.3722 0001405 276.1757  83.8935 15.27576861 91992
STARLINK-32102          
1 59699U 24086T   25354.44095073  .00025447  00000+0  93106-3 0  9992
2 59699  42.9988 147.3139 0003063 288.6468  71.4051 15.27577652 91995
STARLINK-32092          
1 59700U 24086U   25353.80507738 -.00001088  00000+0 -30023-4 0  9997
2 59700  43.0002 151.1427 0000804 257.8347 102.2415 15.27577451 91897
STARLINK-32093          
1 59701U 24086V   25354.45636210  .00001351  00000+0  58639-4 0  9992
2 59701  43.0021 147.4292 0001321 258.2238 101.8466 15.27572995 91996
STARLINK-32087          
1 59702U 24086W   25354.51018653  .00002393  00000+0  96493-4 0  9992
2 59702  43.0012 146.9729 0001062 269.6025  90.4705 15.27565622 92009
STARLINK-32086          
1 59703U 24086X   25353.70755512  .00001801  00000+0  74973-4 0  9997
2 59703  43.0025 151.2725 0001683 262.4416  97.6245 15.27578803 91881
STARLINK-32098          
1 59704U 24086Y   25354.46664435 -.00000896  00000+0 -23047-4 0  9996
2 59704  43.0005 147.5077 0001300 271.7435  88.3268 15.27574311 91992
STARLINK-11107 [DTC]    
1 59708U 24088A   25354.27556768 -.00000214  00000+0  30907-5 0  9997
2 59708  53.1596 357.4479 0001026  85.2174 274.8961 15.69705989 93788
STARLINK-11088 [DTC]    
1 59709U 24088B   25354.26585481  .00004842  00000+0  44791-4 0  9996
2 59709  53.1584 358.1128 0001492  78.4938 281.6248 15.69718162 93796
STARLINK-11092 [DTC]    
1 59710U 24088C   25354.38829281 -.00000738  00000+0 -12267-5 0  9996
2 59710  53.1583 357.4513 0001851  80.7492 279.3736 15.69708593 93813
STARLINK-11082 [DTC]    
1 59711U 24088D   25354.44705291 -.00002920  00000+0 -19235-4 0  9994
2 59711  53.1590 357.1054 0001785 102.8624 257.2593 15.69717093 93820
STARLINK-11108 [DTC]    
1 59712U 24088E   25354.31480493 -.00002342  00000+0 -14473-4 0  9992
2 59712  53.1596 357.6992 0001043 100.7631 259.3504 15.69722640 93802
STARLINK-11100 [DTC]    
1 59713U 24088F   25354.30990218 -.00001441  00000+0 -70377-5 0  9998
2 59713  53.1599 357.6651 0001242  83.5924 276.5235 15.69713078 93809
STARLINK-11094 [DTC]    
1 59714U 24088G   25354.43233677  .00001418  00000+0  16562-4 0  9999
2 59714  53.1579 357.0117 0001231  85.2499 274.8660 15.69711184 93824
STARLINK-11101 [DTC]    
1 59715U 24088H   25354.29518596 -.00000973  00000+0 -31705-5 0  9994
2 59715  53.1589 357.5655 0001188  81.7408 278.3745 15.69717797 93807
STARLINK-11099 [DTC]    
1 59716U 24088J   25354.30009000 -.00001751  00000+0 -95948-5 0  9996
2 59716  53.1585 357.5983 0001119  81.9253 278.1892 15.69718902 93802
